{
  "norad_id": 63642,
  "name": "STARLINK-33836",
  "history": [
    {
      "epoch": "2026-04-12T21:15:13.299840Z",
      "apogee_km": 483.75152393752705,
      "perigee_km": 482.3175390874412,
      "latitude_deg": -3.8049014558363705e-05,
      "longitude_deg": 12.462460979124467,
      "height_km": 482.575082916439,
      "semi_major_axis_km": 6861.171531512484,
      "eccentricity": 0.0001045,
      "inclination_deg": 43.004,
      "raan_deg": 172.3522,
      "arg_perigee_deg": 289.241,
      "mean_anomaly_deg": 70.8328,
      "mean_motion_rev_day": 15.27584864
    },
    {
      "epoch": "2026-04-14T20:19:55.058592Z",
      "apogee_km": 483.90081343332076,
      "perigee_km": 482.19100665213773,
      "latitude_deg": -2.9396448872436915e-05,
      "longitude_deg": 13.278841514468064,
      "height_km": 482.7429793338182,
      "semi_major_axis_km": 6861.182910042729,
      "eccentricity": 0.0001246,
      "inclination_deg": 43.0006,
      "raan_deg": 161.276,
      "arg_perigee_deg": 275.3412,
      "mean_anomaly_deg": 84.7297,
      "mean_motion_rev_day": 15.27581064
    },
    {
      "epoch": "2026-04-15T10:27:19.239840Z",
      "apogee_km": 483.93561267298355,
      "perigee_km": 482.11219055177025,
      "latitude_deg": -2.802544262663171e-05,
      "longitude_deg": 157.52356212054966,
      "height_km": 482.6904907132561,
      "semi_major_axis_km": 6861.160901612377,
      "eccentricity": 0.00013288,
      "inclination_deg": 42.9993,
      "raan_deg": 157.9515,
      "arg_perigee_deg": 276.9288,
      "mean_anomaly_deg": 83.1412,
      "mean_motion_rev_day": 15.27588414
    },
    {
      "epoch": "2026-04-16T19:24:36.743040Z",
      "apogee_km": 483.76614577256987,
      "perigee_km": 482.3609718981197,
      "latitude_deg": 2.1491121774268037e-06,
      "longitude_deg": 14.092958868553435,
      "height_km": 482.7629278940038,
      "semi_major_axis_km": 6861.200558835344,
      "eccentricity": 0.0001024,
      "inclination_deg": 43.0014,
      "raan_deg": 150.1972,
      "arg_perigee_deg": 276.3062,
      "mean_anomaly_deg": 83.7673,
      "mean_motion_rev_day": 15.2757517
    },
    {
      "epoch": "2026-04-17T18:56:58.588800Z",
      "apogee_km": 484.0173999034105,
      "perigee_km": 482.12960644556733,
      "latitude_deg": 2.3903020791004004e-05,
      "longitude_deg": 14.495330471220598,
      "height_km": 482.7595989062236,
      "semi_major_axis_km": 6861.210503174489,
      "eccentricity": 0.00013757,
      "inclination_deg": 42.9996,
      "raan_deg": 144.6573,
      "arg_perigee_deg": 275.5048,
      "mean_anomaly_deg": 84.5647,
      "mean_motion_rev_day": 15.27571849
    },
    {
      "epoch": "2026-04-18T18:29:19.908384Z",
      "apogee_km": 484.1795002014651,
      "perigee_km": 481.8714051523839,
      "latitude_deg": 2.0132387968089312e-05,
      "longitude_deg": 14.897372218117583,
      "height_km": 482.69092083133,
      "semi_major_axis_km": 6861.162452676924,
      "eccentricity": 0.0001682,
      "inclination_deg": 42.9984,
      "raan_deg": 139.1149,
      "arg_perigee_deg": 275.5339,
      "mean_anomaly_deg": 84.5321,
      "mean_motion_rev_day": 15.27587896
    },
    {
      "epoch": "2026-04-19T18:01:40.095264Z",
      "apogee_km": 484.1665892721285,
      "perigee_km": 481.79127093712486,
      "latitude_deg": 2.0127315410405714e-06,
      "longitude_deg": 15.307529998903773,
      "height_km": 482.6499715752003,
      "semi_major_axis_km": 6861.115930104626,
      "eccentricity": 0.0001731,
      "inclination_deg": 42.9974,
      "raan_deg": 133.5759,
      "arg_perigee_deg": 275.1033,
      "mean_anomaly_deg": 84.9621,
      "mean_motion_rev_day": 15.27603433
    },
    {
      "epoch": "2026-04-20T09:43:15.051648Z",
      "apogee_km": 483.7779660082206,
      "perigee_km": 482.403799287883,
      "latitude_deg": -7.307672901691076e-07,
      "longitude_deg": 135.57678387119958,
      "height_km": 483.0885781291029,
      "semi_major_axis_km": 6861.2278826480515,
      "eccentricity": 0.00010014,
      "inclination_deg": 43.0007,
      "raan_deg": 129.8853,
      "arg_perigee_deg": 251.2079,
      "mean_anomaly_deg": 108.8664,
      "mean_motion_rev_day": 15.27566045
    }
  ]
}